{"type": "FeatureCollection", "features": [ {"type": "Feature", "properties": {"norad_id": 30160, "name": "FENGYUN 1C DEB", "group": "fengyun-1c-debris", "lat": -46.998532274633476, "lon": 116.7653286048532, "alt_km": 1270.594172535525, "timestamp": "2025-12-25T07:41:09.997456+00:00", "meta": {"OBJECT_NAME": "FENGYUN 1C DEB", "OBJECT_ID": "1999-025TR", "EPOCH": "2025-12-24T20:10:00.768288", "MEAN_MOTION": 13.42910107, "ECCENTRICITY": 0.03434556, "INCLINATION": 98.8875, "RA_OF_ASC_NODE": 306, "ARG_OF_PERICENTER": 97.2919, "MEAN_ANOMALY": 328.1997, "EPHEMERIS_TYPE": 0, "CLASSIFICATION_TYPE": "U", "NORAD_CAT_ID": 30160, "ELEMENT_SET_NO": 999, "REV_AT_EPOCH": 92576, "BSTAR": 0.0011774976, "MEAN_MOTION_DOT": 9.18e-06, "MEAN_MOTION_DDOT": 0}, "tle": {"line1": "1 30160U 99025TR  25358.84028667  .00000918  00000+0  11775-2 0  9999", "line2": "2 30160  98.8875 306.0000 0343455  97.2919 328.1997 13.42910107925763"}}, "geometry": {"type": "Point", "coordinates": [116.7653286048532, -46.998532274633476]}}, {"type": "Feature", "properties": {"norad_id": 30161, "name": "FENGYUN 1C DEB", "group": "fengyun-1c-debris", "lat": 79.3730128375531, "lon": -94.08219626654531, "alt_km": 1246.6041293262879, "timestamp": "2025-12-25T07:41:09.997467+00:00", "meta": {"OBJECT_NAME": "FENGYUN 1C DEB", "OBJECT_ID": "1999-025TS", "EPOCH": "2025-12-24T10:40:01.812288", "MEAN_MOTION": 13.49750643, "ECCENTRICITY": 0.03276815, "INCLINATION": 100.5066, "RA_OF_ASC_NODE": 346.4883, "ARG_OF_PERICENTER": 229.5927, "MEAN_ANOMALY": 287.9173, "EPHEMERIS_TYPE": 0, "CLASSIFICATION_TYPE": "U", "NORAD_CAT_ID": 30161, "ELEMENT_SET_NO": 999, "REV_AT_EPOCH": 92717, "BSTAR": 0.001355303, "MEAN_MOTION_DOT": 1.147e-05, "MEAN_MOTION_DDOT": 0}, "tle": {"line1": "1 30161U 99025TS  25358.44446542  .00001147  00000+0  13553-2 0  9993", "line2": "2 30161 100.5066 346.4883 0327681 229.5927 287.9173 13.49750643927175"}}, "geometry": {"type": "Point", "coordinates": [-94.08219626654531, 79.3730128375531]}}, {"type": "Feature", "properties": {"norad_id": 30162, "name": "FENGYUN 1C DEB", "group": "fengyun-1c-debris", "lat": 59.049074472960996, "lon": 38.694982148551205, "alt_km": 1098.32056402924, "timestamp": "2025-12-25T07:41:09.997477+00:00", "meta": {"OBJECT_NAME": "FENGYUN 1C DEB", "OBJECT_ID": "1999-025TT", "EPOCH": "2025-12-24T16:03:46.699200", "MEAN_MOTION": 13.53451086, "ECCENTRICITY": 0.03141652, "INCLINATION": 99.4875, "RA_OF_ASC_NODE": 54.2612, "ARG_OF_PERICENTER": 319.3446, "MEAN_ANOMALY": 167.4432, "EPHEMERIS_TYPE": 0, "CLASSIFICATION_TYPE": "U", "NORAD_CAT_ID": 30162, "ELEMENT_SET_NO": 999, "REV_AT_EPOCH": 92822, "BSTAR": 0.0026341893, "MEAN_MOTION_DOT": 2.376e-05, "MEAN_MOTION_DDOT": 0}, "tle": {"line1": "1 30162U 99025TT  25358.66929050  .00002376  00000+0  26342-2 0  9993", "line2": "2 30162  99.4875  54.2612 0314165 319.3446 167.4432 13.53451086928222"}}, "geometry": {"type": "Point", "coordinates": [38.694982148551205, 59.049074472960996]}}, {"type": "Feature", "properties": {"norad_id": 30163, "name": "FENGYUN 1C DEB", "group": "fengyun-1c-debris", "lat": 56.32441713205821, "lon": -54.066439276364726, "alt_km": 1041.6557073473605, "timestamp": "2025-12-25T07:41:09.997488+00:00", "meta": {"OBJECT_NAME": "FENGYUN 1C DEB", "OBJECT_ID": "1999-025TU", "EPOCH": "2025-12-24T20:56:26.127168", "MEAN_MOTION": 13.38817819, "ECCENTRICITY": 0.03740763, "INCLINATION": 98.7013, "RA_OF_ASC_NODE": 112.2618, "ARG_OF_PERICENTER": 202.0826, "MEAN_ANOMALY": 287.8765, "EPHEMERIS_TYPE": 0, "CLASSIFICATION_TYPE": "U", "NORAD_CAT_ID": 30163, "ELEMENT_SET_NO": 999, "REV_AT_EPOCH": 92107, "BSTAR": 0.001892361, "MEAN_MOTION_DOT": 1.483e-05, "MEAN_MOTION_DDOT": 0}, "tle": {"line1": "1 30163U 99025TU  25358.87252462  .00001483  00000+0  18924-2 0  9998", "line2": "2 30163  98.7013 112.2618 0374076 202.0826 287.8765 13.38817819921072"}}, "geometry": {"type": "Point", "coordinates": [-54.066439276364726, 56.32441713205821]}}, {"type": "Feature", "properties": {"norad_id": 30167, "name": "FENGYUN 1C DEB", "group": "fengyun-1c-debris", "lat": -1.7184608021333463, "lon": 85.53907057088186, "alt_km": 781.3919346734419, "timestamp": "2025-12-25T07:41:09.997498+00:00", "meta": {"OBJECT_NAME": "FENGYUN 1C DEB", "OBJECT_ID": "1999-025TY", "EPOCH": "2025-12-24T12:06:20.057184", "MEAN_MOTION": 14.48584118, "ECCENTRICITY": 0.01442878, "INCLINATION": 98.9672, "RA_OF_ASC_NODE": 84.4016, "ARG_OF_PERICENTER": 119.4216, "MEAN_ANOMALY": 308.2479, "EPHEMERIS_TYPE": 0, "CLASSIFICATION_TYPE": "U", "NORAD_CAT_ID": 30167, "ELEMENT_SET_NO": 999, "REV_AT_EPOCH": 99529, "BSTAR": 0.00040985858, "MEAN_MOTION_DOT": 1.702e-05, "MEAN_MOTION_DDOT": 0}, "tle": {"line1": "1 30167U 99025TY  25358.50439881  .00001702  00000+0  40986-3 0  9992", "line2": "2 30167  98.9672  84.4016 0144287 119.4216 308.2479 14.48584118995294"}}, "geometry": {"type": "Point", "coordinates": [85.53907057088186, -1.7184608021333463]}}, {"type": "Feature", "properties": {"norad_id": 30168, "name": "FENGYUN 1C DEB", "group": "fengyun-1c-debris", "lat": -82.26865177317973, "lon": 177.30618236430738, "alt_km": 786.2540823900017, "timestamp": "2025-12-25T07:41:09.997508+00:00", "meta": {"OBJECT_NAME": "FENGYUN 1C DEB", "OBJECT_ID": "1999-025TZ", "EPOCH": "2025-12-24T17:14:35.609280", "MEAN_MOTION": 14.53049502, "ECCENTRICITY": 0.01003334, "INCLINATION": 97.3886, "RA_OF_ASC_NODE": 69.6746, "ARG_OF_PERICENTER": 116.7444, "MEAN_ANOMALY": 244.4065, "EPHEMERIS_TYPE": 0, "CLASSIFICATION_TYPE": "U", "NORAD_CAT_ID": 30168, "ELEMENT_SET_NO": 999, "REV_AT_EPOCH": 98485, "BSTAR": 0.0017577092, "MEAN_MOTION_DOT": 7.725e-05, "MEAN_MOTION_DDOT": 0}, "tle": {"line1": "1 30168U 99025TZ  25358.71846770  .00007725  00000+0  17577-2 0  9995", "line2": "2 30168  97.3886  69.6746 0100333 116.7444 244.4065 14.53049502984858"}}, "geometry": {"type": "Point", "coordinates": [177.30618236430738, -82.26865177317973]}}, {"type": "Feature", "properties": {"norad_id": 30169, "name": "FENGYUN 1C DEB", "group": "fengyun-1c-debris", "lat": -30.693520973365942, "lon": 73.821249945415, "alt_km": 819.6559860175139, "timestamp": "2025-12-25T07:41:09.997518+00:00", "meta": {"OBJECT_NAME": "FENGYUN 1C DEB", "OBJECT_ID": "1999-025UA", "EPOCH": "2025-12-24T22:45:49.916160", "MEAN_MOTION": 14.5846002, "ECCENTRICITY": 0.02127999, "INCLINATION": 98.3344, "RA_OF_ASC_NODE": 68.4561, "ARG_OF_PERICENTER": 189.3106, "MEAN_ANOMALY": 347.4154, "EPHEMERIS_TYPE": 0, "CLASSIFICATION_TYPE": "U", "NORAD_CAT_ID": 30169, "ELEMENT_SET_NO": 999, "REV_AT_EPOCH": 97901, "BSTAR": 0.0027761258, "MEAN_MOTION_DOT": 0.00017627, "MEAN_MOTION_DDOT": 0}, "tle": {"line1": "1 30169U 99025UA  25358.94849440  .00017627  00000+0  27761-2 0  9996", "line2": "2 30169  98.3344  68.4561 0212799 189.3106 347.4154 14.58460020979014"}}, "geometry": {"type": "Point", "coordinates": [73.821249945415, -30.693520973365942]}}, {"type": "Feature", "properties": {"norad_id": 30170, "name": "FENGYUN 1C DEB", "group": "fengyun-1c-debris", "lat": -53.7725815679005, "lon": 153.6713733531291, "alt_km": 843.5169131527464, "timestamp": "2025-12-25T07:41:09.997529+00:00", "meta": {"OBJECT_NAME": "FENGYUN 1C DEB", "OBJECT_ID": "1999-025UB", "EPOCH": "2025-12-24T17:41:37.231872", "MEAN_MOTION": 14.00320749, "ECCENTRICITY": 0.00774163, "INCLINATION": 98.8497, "RA_OF_ASC_NODE": 345.3849, "ARG_OF_PERICENTER": 240.8838, "MEAN_ANOMALY": 296.3748, "EPHEMERIS_TYPE": 0, "CLASSIFICATION_TYPE": "U", "NORAD_CAT_ID": 30170, "ELEMENT_SET_NO": 999, "REV_AT_EPOCH": 96583, "BSTAR": 0.00028409724, "MEAN_MOTION_DOT": 3.88e-06, "MEAN_MOTION_DDOT": 0}, "tle": {"line1": "1 30170U 99025UB  25358.73723648  .00000388  00000+0  28410-3 0  9995", "line2": "2 30170  98.8497 345.3849 0077416 240.8838 296.3748 14.00320749965832"}}, "geometry": {"type": "Point", "coordinates": [153.6713733531291, -53.7725815679005]}}, {"type": "Feature", "properties": {"norad_id": 30171, "name": "FENGYUN 1C DEB", "group": "fengyun-1c-debris", "lat": -56.91438944346059, "lon": -130.94813647144892, "alt_km": 863.9175159825172, "timestamp": "2025-12-25T07:41:09.997539+00:00", "meta": {"OBJECT_NAME": "FENGYUN 1C DEB", "OBJECT_ID": "1999-025UC", "EPOCH": "2025-12-24T13:03:14.473728", "MEAN_MOTION": 13.96869648, "ECCENTRICITY": 0.01842649, "INCLINATION": 98.3976, "RA_OF_ASC_NODE": 215.2382, "ARG_OF_PERICENTER": 234.2216, "MEAN_ANOMALY": 124.1698, "EPHEMERIS_TYPE": 0, "CLASSIFICATION_TYPE": "U", "NORAD_CAT_ID": 30171, "ELEMENT_SET_NO": 999, "REV_AT_EPOCH": 96435, "BSTAR": 0.00032688398, "MEAN_MOTION_DOT": 4.85e-06, "MEAN_MOTION_DDOT": 0}, "tle": {"line1": "1 30171U 99025UC  25358.54391752  .00000485  00000+0  32688-3 0  9992", "line2": "2 30171  98.3976 215.2382 0184264 234.2216 124.1698 13.96869648964352"}}, "geometry": {"type": "Point", "coordinates": [-130.94813647144892, -56.91438944346059]}}, {"type": "Feature", "properties": {"norad_id": 30172, "name": "FENGYUN 1C DEB", "group": "fengyun-1c-debris", "lat": -60.32056545470085, "lon": -4.637246013280964, "alt_km": 890.9437959553206, "timestamp": "2025-12-25T07:41:09.997549+00:00", "meta": {"OBJECT_NAME": "FENGYUN 1C DEB", "OBJECT_ID": "1999-025UD", "EPOCH": "2025-12-24T10:35:44.710080", "MEAN_MOTION": 14.12517715, "ECCENTRICITY": 0.00688644, "INCLINATION": 99.2363, "RA_OF_ASC_NODE": 337.8678, "ARG_OF_PERICENTER": 168.8959, "MEAN_ANOMALY": 342.7835, "EPHEMERIS_TYPE": 0, "CLASSIFICATION_TYPE": "U", "NORAD_CAT_ID": 30172, "ELEMENT_SET_NO": 999, "REV_AT_EPOCH": 96682, "BSTAR": 0.0011858128, "MEAN_MOTION_DOT": 2.195e-05, "MEAN_MOTION_DDOT": 0}, "tle": {"line1": "1 30172U 99025UD  25358.44148970  .00002195  00000+0  11858-2 0  9999", "line2": "2 30172  99.2363 337.8678 0068864 168.8959 342.7835 14.12517715966824"}}, "geometry": {"type": "Point", "coordinates": [-4.637246013280964, -60.32056545470085]}}]}